NORAD_CAT_ID,OBJECT_NAME,OBJECT_TYPE,EPOCH,MEAN_MOTION,ECCENTRICITY,INCLINATION,RA_OF_ASC_NODE,ARG_OF_PERICENTER,MEAN_ANOMALY,BSTAR,MEAN_MOTION_DOT,MEAN_MOTION_DDOT,TLE_LINE0,TLE_LINE1,TLE_LINE2,SEMIMAJOR_AXIS,PERIOD,APOGEE,PERIGEE,DECAYED
53795.0,STARLINK-4742,PAYLOAD,2024-06-25 06:02:21,15.08840526,0.0001122,53.2164,188.0383,95.4764,264.6357,6.3671e-06,-1.86e-06,0.0,0 STARLINK-4742,1 53795U 22111Y   24177.25163262 -.00000186  00000-0  63671-5 0  9998,2 53795  53.2164 188.0383 0001122  95.4764 264.6357 15.08840526 99723,6917.879,95.438,540.52,538.968,0.0
53795.0,STARLINK-4742,PAYLOAD,2024-06-26 07:28:31,15.08840418,0.000114,53.2161,183.2809,102.8561,257.2558,7.2889e-05,8.72e-06,0.0,0 STARLINK-4742,1 53795U 22111Y   24178.31147082  .00000872  00000-0  72889-4 0  9999,2 53795  53.2161 183.2809 0001140 102.8561 257.2558 15.08840418 99088,6917.879,95.438,540.533,538.955,0.0
53795.0,STARLINK-4742,PAYLOAD,2024-06-27 07:19:18,15.08837445,0.0001103,53.2157,178.8199,98.096,262.0157,5.8917e-05,6.5e-06,0.0,0 STARLINK-4742,1 53795U 22111Y   24179.30507562  .00000650  00000-0  58917-4 0  9992,2 53795  53.2157 178.8199 0001103  98.0960 262.0157 15.08837445 99235,6917.888,95.438,540.516,538.99,0.0
53795.0,STARLINK-4742,PAYLOAD,2024-06-27 16:51:37,15.08837321,0.000107,53.2155,177.0357,93.4764,266.6351,5.1078e-05,5.25e-06,0.0,0 STARLINK-4742,1 53795U 22111Y   24179.70251698  .00000525  00000-0  51078-4 0  9994,2 53795  53.2155 177.0357 0001070  93.4764 266.6351 15.08837321100090,6917.889,95.438,540.494,539.013,0.0
53795.0,STARLINK-4742,PAYLOAD,2024-06-28 07:10:05,15.08838302,0.000109,53.2151,174.359,92.1193,267.9924,5.4558e-05,5.81e-06,0.0,0 STARLINK-4742,1 53795U 22111Y   24180.29867778  .00000581  00000-0  54558-4 0  9990,2 53795  53.2151 174.3590 0001090  92.1193 267.9924 15.08838302100189,6917.886,95.438,540.505,538.997,0.0
53795.0,STARLINK-4742,PAYLOAD,2024-06-29 05:25:29,15.08838775,0.000107,53.2147,170.195,86.9716,273.1398,7.9046e-05,9.7e-06,0.0,0 STARLINK-4742,1 53795U 22111Y   24181.22603931  .00000970  00000-0  79046-4 0  9994,2 53795  53.2147 170.1950 0001070  86.9716 273.1398 15.08838775 99521,6917.884,95.438,540.489,539.009,0.0
53795.0,STARLINK-4742,PAYLOAD,2024-06-29 08:36:15,15.08841964,0.0001097,53.2147,169.6001,84.684,275.4277,0.00010261,1.346e-05,0.0,0 STARLINK-4742,1 53795U 22111Y   24181.35851696  .00001346  00000-0  10261-3 0  9992,2 53795  53.2147 169.6001 0001097  84.6840 275.4277 15.08841964100341,6917.874,95.437,540.498,538.98,0.0
53795.0,STARLINK-4742,PAYLOAD,2024-06-29 16:33:11,15.08839196,0.0001156,53.2148,168.1137,85.6843,274.4281,8.1243e-05,1.005e-05,0.0,0 STARLINK-4742,1 53795U 22111Y   24181.68971997  .00001005  00000-0  81243-4 0  9996,2 53795  53.2148 168.1137 0001156  85.6843 274.4281 15.08839196100399,6917.883,95.438,540.548,538.948,0.0
53795.0,STARLINK-4742,PAYLOAD,2024-06-30 05:16:16,15.08840304,0.0001169,53.2151,165.734,90.3669,269.7457,9.6343e-05,1.246e-05,0.0,0 STARLINK-4742,1 53795U 22111Y   24182.21963959  .00001246  00000-0  96343-4 0  9999,2 53795  53.2151 165.7340 0001169  90.3669 269.7457 15.08840304100479,6917.879,95.438,540.553,538.936,0.0
53795.0,STARLINK-4742,PAYLOAD,2024-06-30 16:23:58,15.08842308,0.0001176,53.2156,163.6521,92.727,267.3856,0.00010264,1.346e-05,0.0,0 STARLINK-4742,1 53795U 22111Y   24182.68331804  .00001346  00000-0  10264-3 0  9996,2 53795  53.2156 163.6521 0001176  92.7270 267.3856 15.08842308 99744,6917.873,95.437,540.552,538.925,0.0
53795.0,STARLINK-4742,PAYLOAD,2024-06-30 22:45:31,15.08841392,0.0001219,53.2152,162.4631,91.7177,268.3955,7.8487e-05,9.62e-06,0.0,0 STARLINK-4742,1 53795U 22111Y   24182.94827954  .00000962  00000-0  78487-4 0  9996,2 53795  53.2152 162.4631 0001219  91.7177 268.3955 15.08841392100580,6917.876,95.437,540.584,538.898,0.0
53795.0,STARLINK-4742,PAYLOAD,2024-07-01 08:17:49,15.08847363,0.0001256,53.2153,160.6787,93.1221,266.9915,0.00012782,1.747e-05,0.0,0 STARLINK-4742,1 53795U 22111Y   24183.34571393  .00001747  00000-0  12782-3 0  9991,2 53795  53.2153 160.6787 0001256  93.1221 266.9915 15.08847363100641,6917.858,95.437,540.592,538.854,0.0
53795.0,STARLINK-4742,PAYLOAD,2024-07-02 04:57:51,15.0883919,0.0001313,53.2157,156.8117,99.5546,260.5594,3.5266e-05,2.73e-06,0.0,0 STARLINK-4742,1 53795U 22111Y   24184.20684121  .00000273  00000-0  35266-4 0  9997,2 53795  53.2157 156.8117 0001313  99.5546 260.5594 15.08839190 99978,6917.883,95.438,540.656,538.84,0.0
53795.0,STARLINK-4742,PAYLOAD,2024-07-02 08:08:38,15.08805816,0.0001468,53.2156,156.217,107.7831,252.3321,0.00049509,7.593e-05,0.0,0 STARLINK-4742,1 53795U 22111Y   24184.33932944  .00007593  00000-0  49509-3 0  9996,2 53795  53.2156 156.2170 0001468 107.7831 252.3321 15.08805816 99997,6917.985,95.44,540.865,538.834,0.0
53795.0,STARLINK-4742,PAYLOAD,2024-07-02 22:27:05,15.08845253,0.0001424,53.2157,153.5399,100.5704,259.5448,-0.00010657,-1.984e-05,0.0,0 STARLINK-4742,1 53795U 22111Y   24184.93548177 -.00001984  00000-0 -10657-3 0  9995,2 53795  53.2157 153.5399 0001424 100.5704 259.5448 15.08845253100882,6917.864,95.437,540.714,538.744,0.0
53795.0,STARLINK-4742,PAYLOAD,2024-07-03 03:13:15,15.08832669,0.0001309,53.2158,152.6496,98.8279,261.2861,-3.8801e-05,-9.05e-06,0.0,0 STARLINK-4742,1 53795U 22111Y   24185.13420826 -.00000905  00000-0 -38801-4 0  9992,2 53795  53.2158 152.6496 0001309  98.8279 261.2861 15.08832669100111,6917.903,95.438,540.673,538.862,0.0
53795.0,STARLINK-4742,PAYLOAD,2024-07-03 14:20:56,15.08841555,0.0001091,53.2151,150.5644,78.5946,281.5169,5.6932e-05,6.18e-06,0.0,0 STARLINK-4742,1 53795U 22111Y   24185.59788037  .00000618  00000-0  56932-4 0  9997,2 53795  53.2151 150.5644 0001091  78.5946 281.5169 15.08841555100187,6917.876,95.437,540.495,538.986,0.0
53795.0,STARLINK-4742,PAYLOAD,2024-07-03 22:17:53,15.08833278,0.0001281,53.2161,149.0813,97.1272,262.9866,2.0973e-05,4.6e-07,0.0,0 STARLINK-4742,1 53795U 22111Y   24185.92908735  .00000046  00000-0  20973-4 0  9994,2 53795  53.2161 149.0813 0001281  97.1272 262.9866 15.08833278101034,6917.901,95.438,540.652,538.88,0.0
53795.0,STARLINK-4742,PAYLOAD,2024-07-04 14:11:44,15.08840385,0.0001375,53.2175,146.1104,95.4938,264.6211,1.4352e-05,-6e-07,0.0,0 STARLINK-4742,1 53795U 22111Y   24186.59148347 -.00000060  00000-0  14352-4 0  9994,2 53795  53.2175 146.1104 0001375  95.4938 264.6211 15.08840385101135,6917.879,95.438,540.695,538.793,0.0
53795.0,STARLINK-4742,PAYLOAD,2024-07-05 04:30:12,15.0883383,0.0001394,53.2175,143.4347,87.2371,272.8781,0.00014162,1.966e-05,0.0,0 STARLINK-4742,1 53795U 22111Y   24187.18764678  .00001966  00000-0  14162-3 0  9994,2 53795  53.2175 143.4347 0001394  87.2371 272.8781 15.08833830100426,6917.899,95.438,540.729,538.8,0.0
53795.0,STARLINK-4742,PAYLOAD,2024-07-05 14:02:31,15.08835304,0.0001555,53.2178,141.6501,94.0001,266.1169,2.6098e-05,1.27e-06,0.0,0 STARLINK-4742,1 53795U 22111Y   24187.58509026  .00000127  00000-0  26098-4 0  9992,2 53795  53.2178 141.6501 0001555  94.0001 266.1169 15.08835304101285,6917.895,95.438,540.835,538.684,0.0
53795.0,STARLINK-4742,PAYLOAD,2024-07-06 05:56:22,15.08840993,0.0001574,53.2178,138.6734,92.5814,267.5359,3.5003e-05,2.69e-06,0.0,0 STARLINK-4742,1 53795U 22111Y   24188.24748713  .00000269  00000-0  35003-4 0  9997,2 53795  53.2178 138.6734 0001574  92.5814 267.5359 15.08840993100583,6917.877,95.437,540.831,538.653,0.0
53795.0,STARLINK-4742,PAYLOAD,2024-07-06 13:53:18,15.08839585,0.0001458,53.2174,137.1864,84.1968,275.9191,5.8014e-06,-1.96e-06,0.0,0 STARLINK-4742,1 53795U 22111Y   24188.57868831 -.00000196  00000-0  58014-5 0  9995,2 53795  53.2174 137.1864 0001458  84.1968 275.9191 15.08839585101432,6917.882,95.438,540.755,538.738,0.0
53795.0,STARLINK-4742,PAYLOAD,2024-07-07 04:11:46,15.08842246,0.0001367,53.216,134.5117,91.4482,268.6667,2.2437e-05,6.9e-07,0.0,0 STARLINK-4742,1 53795U 22111Y   24189.17484712  .00000069  00000-0  22437-4 0  9991,2 53795  53.2160 134.5117 0001367  91.4482 268.6667 15.08842246101525,6917.874,95.437,540.684,538.793,0.0
53795.0,STARLINK-4742,PAYLOAD,2024-07-07 20:05:38,15.08836348,0.0001266,53.2159,131.5399,91.7447,268.369,5.7301e-05,6.24e-06,0.0,0 STARLINK-4742,1 53795U 22111Y   24189.83725042  .00000624  00000-0  57301-4 0  9993,2 53795  53.2159 131.5399 0001266  91.7447 268.3690 15.08836348100825,6917.892,95.438,540.632,538.881,0.0
53795.0,STARLINK-4742,PAYLOAD,2024-07-08 05:37:56,15.08846842,0.0001361,53.216,129.7534,95.7943,264.3205,5.0514e-05,5.16e-06,0.0,0 STARLINK-4742,1 53795U 22111Y   24190.23468401  .00000516  00000-0  50514-4 0  9991,2 53795  53.2160 129.7534 0001361  95.7943 264.3205 15.08846842100882,6917.859,95.437,540.666,538.783,0.0
53795.0,STARLINK-4742,PAYLOAD,2024-07-08 13:34:52,15.0884122,0.0001434,53.2163,128.2664,90.8651,269.2505,5.5172e-05,5.9e-06,0.0,0 STARLINK-4742,1 53795U 22111Y   24190.56588746  .00000590  00000-0  55172-4 0  9999,2 53795  53.2163 128.2664 0001434  90.8651 269.2505 15.08841220101733,6917.877,95.437,540.734,538.75,0.0
53795.0,STARLINK-4742,PAYLOAD,2024-07-09 05:28:43,15.0883832,0.0001603,53.2175,125.2908,108.2421,251.8746,0.0001823,2.614e-05,0.0,0 STARLINK-4742,1 53795U 22111Y   24191.22828441  .00002614  00000-0  18230-3 0  9994,2 53795  53.2175 125.2908 0001603 108.2421 251.8746 15.08838320101833,6917.886,95.438,540.859,538.642,0.0
53795.0,STARLINK-4742,PAYLOAD,2024-07-09 22:57:58,15.08840125,0.0001663,53.2164,122.0181,108.1748,251.9425,-4.4968e-05,-1.004e-05,0.0,0 STARLINK-4742,1 53795U 22111Y   24191.95693157 -.00001004  00000-0 -44968-4 0  9990,2 53795  53.2164 122.0181 0001663 108.1748 251.9425 15.08840125101949,6917.88,95.438,540.895,538.595,0.0
53795.0,STARLINK-4742,PAYLOAD,2024-07-10 02:08:45,15.08839602,0.0001322,53.2167,121.4264,89.7855,270.3288,-8.5768e-06,-4.24e-06,0.0,0 STARLINK-4742,1 53795U 22111Y   24192.08941109 -.00000424  00000-0 -85768-5 0  9997,2 53795  53.2167 121.4264 0001322  89.7855 270.3288 15.08839602101166,6917.882,95.438,540.661,538.832,0.0
